start=new Date('2022-11-12T00:00:00.000Z').valueOf();
sats=[{"APOAPSIS":"350.779","SITE":"AFWTR","OBJECT_TYPE":"PAYLOAD","OBJECT_ID":"2022-125AW","ARG_OF_PERICENTER":"40.0227","CLASSIFICATION_TYPE":"U","REF_FRAME":"TEME","EPOCH":"2022-11-11T22:00:00.999936","MEAN_MOTION_DDOT":"0.0000000000000","SEMIMAJOR_AXIS":"6727.756","REV_AT_EPOCH":"130","TLE_LINE2":"2 54008  53.2145 268.4346 0001722  40.0227  58.2704 15.73248907  1305","MEAN_MOTION_DOT":"-0.00019002","LAUNCH_DATE":"2022-10-05","TLE_LINE1":"1 54008U 22125AW  22315.91667824 -.00019002  00000-0 -13099-3 0  9994","MEAN_ELEMENT_THEORY":"SGP4","OBJECT_NAME":"STARLINK-5145","RA_OF_ASC_NODE":"268.4346","ECCENTRICITY":"0.00017220","RCS_SIZE":"LARGE","EPHEMERIS_TYPE":"0","CENTER_NAME":"EARTH","PERIOD":"91.530","MEAN_ANOMALY":"58.2704","ELEMENT_SET_NO":"999","INCLINATION":"53.2145","DECAY_DATE":null,"COUNTRY_CODE":"US","GP_ID":"217495018","NORAD_CAT_ID":"54008","FILE":"3651775","BSTAR":"-0.00013099000000","TIME_SYSTEM":"UTC","PERIAPSIS":"348.462","MEAN_MOTION":"15.73248907"},{"PERIOD":"92.026","MEAN_ANOMALY":"192.8182","ELEMENT_SET_NO":"999","EPHEMERIS_TYPE":"0","CENTER_NAME":"EARTH","RA_OF_ASC_NODE":"268.7941","ECCENTRICITY":"0.00011290","RCS_SIZE":"LARGE","TLE_LINE1":"1 54009U 22125AX  22315.91667824 -.01141606  00000-0 -12718-1 0  9997","MEAN_ELEMENT_THEORY":"SGP4","OBJECT_NAME":"STARLINK-5099","PERIAPSIS":"373.103","MEAN_MOTION":"15.64782811","TIME_SYSTEM":"UTC","BSTAR":"-0.01271800000000","FILE":"3651775","GP_ID":"217494299","NORAD_CAT_ID":"54009","DECAY_DATE":null,"INCLINATION":"53.2174","COUNTRY_CODE":"US","EPOCH":"2022-11-11T22:00:00.999936","MEAN_MOTION_DDOT":"0.0000000000000","SEMIMAJOR_AXIS":"6752.000","CLASSIFICATION_TYPE":"U","REF_FRAME":"TEME","OBJECT_TYPE":"PAYLOAD","ARG_OF_PERICENTER":"79.3142","OBJECT_ID":"2022-125AX","APOAPSIS":"374.628","SITE":"AFWTR","MEAN_MOTION_DOT":"-0.01141606","LAUNCH_DATE":"2022-10-05","TLE_LINE2":"2 54009  53.2174 268.7941 0001129  79.3142 192.8182 15.64782811  1306","REV_AT_EPOCH":"130"},{"EPHEMERIS_TYPE":"0","CENTER_NAME":"EARTH","ELEMENT_SET_NO":"999","PERIOD":"91.530","MEAN_ANOMALY":"61.2483","OBJECT_NAME":"STARLINK-5127","MEAN_ELEMENT_THEORY":"SGP4","TLE_LINE1":"1 54010U 22125AY  22315.91667824 -.00020870  00000-0 -14431-3 0  9993","RCS_SIZE":"LARGE","RA_OF_ASC_NODE":"268.4350","ECCENTRICITY":"0.00018040","FILE":"3651775","BSTAR":"-0.00014431000000","PERIAPSIS":"348.397","TIME_SYSTEM":"UTC","MEAN_MOTION":"15.73252529","COUNTRY_CODE":"US","DECAY_DATE":null,"INCLINATION":"53.2160","GP_ID":"217494880","NORAD_CAT_ID":"54010","REF_FRAME":"TEME","CLASSIFICATION_TYPE":"U","MEAN_MOTION_DDOT":"0.0000000000000","SEMIMAJOR_AXIS":"6727.745","EPOCH":"2022-11-11T22:00:00.999936","SITE":"AFWTR","APOAPSIS":"350.824","OBJECT_TYPE":"PAYLOAD","ARG_OF_PERICENTER":"39.0031","OBJECT_ID":"2022-125AY","LAUNCH_DATE":"2022-10-05","MEAN_MOTION_DOT":"-0.00020870","REV_AT_EPOCH":"130","TLE_LINE2":"2 54010  53.2160 268.4350 0001804  39.0031  61.2483 15.73252529  1305"},{"ARG_OF_PERICENTER":"24.8701","OBJECT_ID":"2022-125AZ","OBJECT_TYPE":"PAYLOAD","SITE":"AFWTR","APOAPSIS":"351.474","SEMIMAJOR_AXIS":"6727.893","MEAN_MOTION_DDOT":"0.0000000000000","EPOCH":"2022-11-11T22:00:00.999936","REF_FRAME":"TEME","CLASSIFICATION_TYPE":"U","TLE_LINE2":"2 54011  53.2169 268.7048 0002550  24.8701 299.1703 15.73200733  1304","REV_AT_EPOCH":"130","LAUNCH_DATE":"2022-10-05","MEAN_MOTION_DOT":"0.00069932","RCS_SIZE":"LARGE","RA_OF_ASC_NODE":"268.7048","ECCENTRICITY":"0.00025500","OBJECT_NAME":"STARLINK-5124","TLE_LINE1":"1 54011U 22125AZ  22315.91667824  .00069932  00000-0  49849-3 0  9995","MEAN_ELEMENT_THEORY":"SGP4","ELEMENT_SET_NO":"999","MEAN_ANOMALY":"299.1703","PERIOD":"91.533","EPHEMERIS_TYPE":"0","CENTER_NAME":"EARTH","NORAD_CAT_ID":"54011","GP_ID":"217495187","COUNTRY_CODE":"US","INCLINATION":"53.2169","DECAY_DATE":null,"PERIAPSIS":"348.042","TIME_SYSTEM":"UTC","MEAN_MOTION":"15.73200733","FILE":"3651775","BSTAR":"0.00049849000000"},{"ELEMENT_SET_NO":"999","PERIOD":"91.529","MEAN_ANOMALY":"313.7420","CENTER_NAME":"EARTH","EPHEMERIS_TYPE":"0","RCS_SIZE":"LARGE","RA_OF_ASC_NODE":"268.6984","ECCENTRICITY":"0.00027250","OBJECT_NAME":"STARLINK-5126","TLE_LINE1":"1 54012U 22125BA  22315.91667824 -.00030424  00000-0 -21242-3 0  9999","MEAN_ELEMENT_THEORY":"SGP4","TIME_SYSTEM":"UTC","PERIAPSIS":"347.723","MEAN_MOTION":"15.73271482","BSTAR":"-0.00021242000000","FILE":"3651775","GP_ID":"217495274","NORAD_CAT_ID":"54012","COUNTRY_CODE":"US","DECAY_DATE":null,"INCLINATION":"53.2178","MEAN_MOTION_DDOT":"0.0000000000000","SEMIMAJOR_AXIS":"6727.691","EPOCH":"2022-11-11T22:00:00.999936","REF_FRAME":"TEME","CLASSIFICATION_TYPE":"U","OBJECT_TYPE":"PAYLOAD","OBJECT_ID":"2022-125BA","ARG_OF_PERICENTER":"14.5810","SITE":"AFWTR","APOAPSIS":"351.390","LAUNCH_DATE":"2022-10-05","MEAN_MOTION_DOT":"-0.00030424","TLE_LINE2":"2 54012  53.2178 268.6984 0002725  14.5810 313.7420 15.73271482  1302","REV_AT_EPOCH":"130"},{"SITE":"AFWTR","APOAPSIS":"351.607","OBJECT_TYPE":"PAYLOAD","ARG_OF_PERICENTER":"14.8025","OBJECT_ID":"2022-125BB","REF_FRAME":"TEME","CLASSIFICATION_TYPE":"U","MEAN_MOTION_DDOT":"0.0000000000000","SEMIMAJOR_AXIS":"6727.648","EPOCH":"2022-11-11T22:00:00.999936","REV_AT_EPOCH":"130","TLE_LINE2":"2 54013  53.2170 268.6987 0003112  14.8025 312.2727 15.73286619  1302","LAUNCH_DATE":"2022-10-05","MEAN_MOTION_DOT":"-0.00032832","OBJECT_NAME":"STARLINK-5098","MEAN_ELEMENT_THEORY":"SGP4","TLE_LINE1":"1 54013U 22125BB  22315.91667824 -.00032832  00000-0 -22948-3 0  9999","RCS_SIZE":"LARGE","RA_OF_ASC_NODE":"268.6987","ECCENTRICITY":"0.00031120","CENTER_NAME":"EARTH","EPHEMERIS_TYPE":"0","ELEMENT_SET_NO":"999","PERIOD":"91.528","MEAN_ANOMALY":"312.2727","COUNTRY_CODE":"US","DECAY_DATE":null,"INCLINATION":"53.2170","GP_ID":"217494716","NORAD_CAT_ID":"54013","FILE":"3651775","BSTAR":"-0.00022948000000","PERIAPSIS":"347.420","MEAN_MOTION":"15.73286619","TIME_SYSTEM":"UTC"},{"CENTER_NAME":"EARTH","EPHEMERIS_TYPE":"0","ELEMENT_SET_NO":"999","PERIOD":"91.529","MEAN_ANOMALY":"317.9159","OBJECT_NAME":"STARLINK-5116","TLE_LINE1":"1 54014U 22125BC  22315.91667824 -.00011932  00000-0 -80395-4 0  9999","MEAN_ELEMENT_THEORY":"SGP4","RCS_SIZE":"LARGE","ECCENTRICITY":"0.00030460","RA_OF_ASC_NODE":"268.7001","FILE":"3651775","BSTAR":"-0.00008039500000","PERIAPSIS":"347.483","MEAN_MOTION":"15.73280071","TIME_SYSTEM":"UTC","COUNTRY_CODE":"US","DECAY_DATE":null,"INCLINATION":"53.2176","GP_ID":"217494464","NORAD_CAT_ID":"54014","REF_FRAME":"TEME","CLASSIFICATION_TYPE":"U","MEAN_MOTION_DDOT":"0.0000000000000","SEMIMAJOR_AXIS":"6727.667","EPOCH":"2022-11-11T22:00:00.999936","SITE":"AFWTR","APOAPSIS":"351.581","OBJECT_TYPE":"PAYLOAD","ARG_OF_PERICENTER":"9.7545","OBJECT_ID":"2022-125BC","LAUNCH_DATE":"2022-10-05","MEAN_MOTION_DOT":"-0.00011932","REV_AT_EPOCH":"130","TLE_LINE2":"2 54014  53.2176 268.7001 0003046   9.7545 317.9159 15.73280071  1300"},{"CLASSIFICATION_TYPE":"U","REF_FRAME":"TEME","EPOCH":"2022-11-11T22:00:00.999936","MEAN_MOTION_DDOT":"0.0000000000000","SEMIMAJOR_AXIS":"6727.938","APOAPSIS":"351.832","SITE":"AFWTR","OBJECT_TYPE":"PAYLOAD","OBJECT_ID":"2022-125BD","ARG_OF_PERICENTER":"17.1193","MEAN_MOTION_DOT":"0.00069383","LAUNCH_DATE":"2022-10-05","REV_AT_EPOCH":"130","TLE_LINE2":"2 54015  53.2169 268.6938 0003017  17.1193 312.3018 15.73185146  1301","CENTER_NAME":"EARTH","EPHEMERIS_TYPE":"0","PERIOD":"91.534","MEAN_ANOMALY":"312.3018","ELEMENT_SET_NO":"999","TLE_LINE1":"1 54015U 22125BD  22315.91667824  .00069383  00000-0  49494-3 0  9995","MEAN_ELEMENT_THEORY":"SGP4","OBJECT_NAME":"STARLINK-5055","RA_OF_ASC_NODE":"268.6938","ECCENTRICITY":"0.00030170","RCS_SIZE":"LARGE","FILE":"3651775","BSTAR":"0.00049494000000","PERIAPSIS":"347.773","MEAN_MOTION":"15.73185146","TIME_SYSTEM":"UTC","INCLINATION":"53.2169","DECAY_DATE":null,"COUNTRY_CODE":"US","GP_ID":"217495443","NORAD_CAT_ID":"54015"},{"RCS_SIZE":"LARGE","RA_OF_ASC_NODE":"37.8103","ECCENTRICITY":"0.00019070","OBJECT_NAME":"STARLINK-5195","TLE_LINE1":"1 54051U 22136A   22315.91667824 -.01196464  00000-0 -16767-1 0  9996","MEAN_ELEMENT_THEORY":"SGP4","ELEMENT_SET_NO":"999","MEAN_ANOMALY":"73.8833","PERIOD":"92.364","CENTER_NAME":"EARTH","EPHEMERIS_TYPE":"0","NORAD_CAT_ID":"54051","GP_ID":"217495023","COUNTRY_CODE":"US","INCLINATION":"53.2172","DECAY_DATE":null,"TIME_SYSTEM":"UTC","PERIAPSIS":"389.130","MEAN_MOTION":"15.59045317","BSTAR":"-0.01676700000000","FILE":"3651775","ARG_OF_PERICENTER":"29.7587","OBJECT_ID":"2022-136A","OBJECT_TYPE":"PAYLOAD","SITE":"AFETR","APOAPSIS":"391.712","SEMIMAJOR_AXIS":"6768.556","MEAN_MOTION_DDOT":"0.0000000000000","EPOCH":"2022-11-11T22:00:00.999936","REF_FRAME":"TEME","CLASSIFICATION_TYPE":"U","TLE_LINE2":"2 54051  53.2172  37.8103 0001907  29.7587  73.8833 15.59045317  1300","REV_AT_EPOCH":"130","LAUNCH_DATE":"2022-10-20","MEAN_MOTION_DOT":"-0.01196464"},{"LAUNCH_DATE":"2022-10-20","MEAN_MOTION_DOT":"-0.00060833","REV_AT_EPOCH":"130","TLE_LINE2":"2 54052  53.2172  37.0858 0002624  30.3584  70.4550 15.73324907  1302","REF_FRAME":"TEME","CLASSIFICATION_TYPE":"U","MEAN_MOTION_DDOT":"0.0000000000000","SEMIMAJOR_AXIS":"6727.539","EPOCH":"2022-11-11T22:00:00.999936","SITE":"AFETR","APOAPSIS":"351.169","OBJECT_TYPE":"PAYLOAD","ARG_OF_PERICENTER":"30.3584","OBJECT_ID":"2022-136B","BSTAR":"-0.00042974000000","FILE":"3651775","PERIAPSIS":"347.639","TIME_SYSTEM":"UTC","MEAN_MOTION":"15.73324907","COUNTRY_CODE":"US","INCLINATION":"53.2172","DECAY_DATE":null,"GP_ID":"217494304","NORAD_CAT_ID":"54052","EPHEMERIS_TYPE":"0","CENTER_NAME":"EARTH","ELEMENT_SET_NO":"999","PERIOD":"91.526","MEAN_ANOMALY":"70.4550","OBJECT_NAME":"STARLINK-5189","TLE_LINE1":"1 54052U 22136B   22315.91667824 -.00060833  00000-0 -42974-3 0  9997","MEAN_ELEMENT_THEORY":"SGP4","RCS_SIZE":"LARGE","RA_OF_ASC_NODE":"37.0858","ECCENTRICITY":"0.00026240"}];
